{
  "type": "FeatureCollection",
  "features": [
    {
      "type": "Feature",
      "properties": {
        "norad_id": 25590,
        "name": "COSMOS 2361",
        "group": "musson",
        "lat": -45.23200489992745,
        "lon": -28.42627557467132,
        "alt_km": 986.9578102680334,
        "timestamp": "2025-12-19T22:41:52.661573+00:00",
        "meta_object_name": "COSMOS 2361",
        "meta_object_id": "1998-076A",
        "meta_epoch": "2025-12-19T09:27:54.520128",
        "meta_mean_motion": 13.73218304,
        "meta_eccentricity": 0.0030144,
        "meta_inclination": 82.9341,
        "meta_ra_of_asc_node": 339.1642,
        "meta_arg_of_pericenter": 246.3066,
        "meta_mean_anomaly": 223.5813,
        "meta_ephemeris_type": 0,
        "meta_classification_type": "U",
        "meta_norad_cat_id": 25590,
        "meta_element_set_no": 999,
        "meta_rev_at_epoch": 35202,
        "meta_bstar": 4.6612e-05,
        "meta_mean_motion_dot": 5.8e-07,
        "meta_mean_motion_ddot": 0,
        "tle_line1": "1 25590U 98076A   25353.39438102  .00000058  00000+0  46612-4 0  9994",
        "tle_line2": "2 25590  82.9341 339.1642 0030144 246.3066 223.5813 13.73218304352025"
      },
      "geometry": {
        "type": "Point",
        "coordinates": [
          -28.42627557467132,
          -45.23200489992745
        ]
      }
    },
    {
      "type": "Feature",
      "properties": {
        "norad_id": 26818,
        "name": "COSMOS 2378",
        "group": "musson",
        "lat": 49.8051022051226,
        "lon": 2.8312416532858946,
        "alt_km": 996.9896646413117,
        "timestamp": "2025-12-19T22:41:52.661595+00:00",
        "meta_object_name": "COSMOS 2378",
        "meta_object_id": "2001-023A",
        "meta_epoch": "2025-12-19T10:45:28.864800",
        "meta_mean_motion": 13.74142545,
        "meta_eccentricity": 0.0032813,
        "meta_inclination": 82.927,
        "meta_ra_of_asc_node": 354.7502,
        "meta_arg_of_pericenter": 186.0025,
        "meta_mean_anomaly": 284.9718,
        "meta_ephemeris_type": 0,
        "meta_classification_type": "U",
        "meta_norad_cat_id": 26818,
        "meta_element_set_no": 999,
        "meta_rev_at_epoch": 23015,
        "meta_bstar": 3.5693e-05,
        "meta_mean_motion_dot": 4.9e-07,
        "meta_mean_motion_ddot": 0,
        "tle_line1": "1 26818U 01023A   25353.44825075  .00000049  00000+0  35693-4 0  9996",
        "tle_line2": "2 26818  82.9270 354.7502 0032813 186.0025 284.9718 13.74142545230156"
      },
      "geometry": {
        "type": "Point",
        "coordinates": [
          2.8312416532858946,
          49.8051022051226
        ]
      }
    },
    {
      "type": "Feature",
      "properties": {
        "norad_id": 27436,
        "name": "COSMOS 2389",
        "group": "musson",
        "lat": -74.97352753489909,
        "lon": -85.79626171613633,
        "alt_km": 1004.5860980828174,
        "timestamp": "2025-12-19T22:41:52.661609+00:00",
        "meta_object_name": "COSMOS 2389",
        "meta_object_id": "2002-026A",
        "meta_epoch": "2025-12-19T06:08:42.332064",
        "meta_mean_motion": 13.75155305,
        "meta_eccentricity": 0.0047403,
        "meta_inclination": 82.9508,
        "meta_ra_of_asc_node": 302.1607,
        "meta_arg_of_pericenter": 43.0186,
        "meta_mean_anomaly": 68.3041,
        "meta_ephemeris_type": 0,
        "meta_classification_type": "U",
        "meta_norad_cat_id": 27436,
        "meta_element_set_no": 999,
        "meta_rev_at_epoch": 18238,
        "meta_bstar": 3.0887e-05,
        "meta_mean_motion_dot": 4.5e-07,
        "meta_mean_motion_ddot": 0,
        "tle_line1": "1 27436U 02026A   25353.25604551  .00000045  00000+0  30887-4 0  9996",
        "tle_line2": "2 27436  82.9508 302.1607 0047403  43.0186  68.3041 13.75155305182384"
      },
      "geometry": {
        "type": "Point",
        "coordinates": [
          -85.79626171613633,
          -74.97352753489909
        ]
      }
    },
    {
      "type": "Feature",
      "properties": {
        "norad_id": 27818,
        "name": "COSMOS 2398",
        "group": "musson",
        "lat": 14.672084197823771,
        "lon": 85.53129065372518,
        "alt_km": 984.5525755711469,
        "timestamp": "2025-12-19T22:41:52.661620+00:00",
        "meta_object_name": "COSMOS 2398",
        "meta_object_id": "2003-023A",
        "meta_epoch": "2025-12-19T04:56:41.901792",
        "meta_mean_motion": 13.72386311,
        "meta_eccentricity": 0.0032739,
        "meta_inclination": 82.9484,
        "meta_ra_of_asc_node": 267.9334,
        "meta_arg_of_pericenter": 94.5219,
        "meta_mean_anomaly": 17.6858,
        "meta_ephemeris_type": 0,
        "meta_classification_type": "U",
        "meta_norad_cat_id": 27818,
        "meta_element_set_no": 999,
        "meta_rev_at_epoch": 12905,
        "meta_bstar": 4.1461e-05,
        "meta_mean_motion_dot": 5.3e-07,
        "meta_mean_motion_ddot": 0,
        "tle_line1": "1 27818U 03023A   25353.20604053  .00000053  00000+0  41461-4 0  9999",
        "tle_line2": "2 27818  82.9484 267.9334 0032739  94.5219  17.6858 13.72386311129058"
      },
      "geometry": {
        "type": "Point",
        "coordinates": [
          85.53129065372518,
          14.672084197823771
        ]
      }
    },
    {
      "type": "Feature",
      "properties": {
        "norad_id": 28380,
        "name": "COSMOS 2407",
        "group": "musson",
        "lat": 75.52221938797985,
        "lon": -1.0351381042709822,
        "alt_km": 958.4599369847747,
        "timestamp": "2025-12-19T22:41:52.661631+00:00",
        "meta_object_name": "COSMOS 2407",
        "meta_object_id": "2004-028A",
        "meta_epoch": "2025-12-19T13:38:19.511232",
        "meta_mean_motion": 13.76314468,
        "meta_eccentricity": 0.0040029,
        "meta_inclination": 82.9599,
        "meta_ra_of_asc_node": 207.8369,
        "meta_arg_of_pericenter": 36.2426,
        "meta_mean_anomaly": 356.7997,
        "meta_ephemeris_type": 0,
        "meta_classification_type": "U",
        "meta_norad_cat_id": 28380,
        "meta_element_set_no": 999,
        "meta_rev_at_epoch": 7517,
        "meta_bstar": 6.2957e-05,
        "meta_mean_motion_dot": 7.7e-07,
        "meta_mean_motion_ddot": 0,
        "tle_line1": "1 28380U 04028A   25353.56828138  .00000077  00000+0  62957-4 0  9990",
        "tle_line2": "2 28380  82.9599 207.8369 0040029  36.2426 356.7997 13.76314468 75177"
      },
      "geometry": {
        "type": "Point",
        "coordinates": [
          -1.0351381042709822,
          75.52221938797985
        ]
      }
    },
    {
      "type": "Feature",
      "properties": {
        "norad_id": 28521,
        "name": "COSMOS 2414",
        "group": "musson",
        "lat": -53.59092090124678,
        "lon": 169.54964351127026,
        "alt_km": 972.9554542980131,
        "timestamp": "2025-12-19T22:41:52.661642+00:00",
        "meta_object_name": "COSMOS 2414",
        "meta_object_id": "2005-002A",
        "meta_epoch": "2025-12-19T10:50:55.701312",
        "meta_mean_motion": 13.8790381,
        "meta_eccentricity": 0.0041226,
        "meta_inclination": 82.9488,
        "meta_ra_of_asc_node": 179.5841,
        "meta_arg_of_pericenter": 120.9895,
        "meta_mean_anomaly": 239.5328,
        "meta_ephemeris_type": 0,
        "meta_classification_type": "U",
        "meta_norad_cat_id": 28521,
        "meta_element_set_no": 999,
        "meta_rev_at_epoch": 5888,
        "meta_bstar": 4.4826e-05,
        "meta_mean_motion_dot": 7e-07,
        "meta_mean_motion_ddot": 0,
        "tle_line1": "1 28521U 05002A   25353.45203358  .00000070  00000+0  44826-4 0  9997",
        "tle_line2": "2 28521  82.9488 179.5841 0041226 120.9895 239.5328 13.87903810 58884"
      },
      "geometry": {
        "type": "Point",
        "coordinates": [
          169.54964351127026,
          -53.59092090124678
        ]
      }
    },
    {
      "type": "Feature",
      "properties": {
        "norad_id": 32052,
        "name": "COSMOS 2429",
        "group": "musson",
        "lat": 68.85249653446002,
        "lon": 139.42360628345523,
        "alt_km": 975.2848128659389,
        "timestamp": "2025-12-19T22:41:52.661653+00:00",
        "meta_object_name": "COSMOS 2429",
        "meta_object_id": "2007-038A",
        "meta_epoch": "2025-12-19T16:55:45.234624",
        "meta_mean_motion": 13.75150092,
        "meta_eccentricity": 0.0038846,
        "meta_inclination": 82.9805,
        "meta_ra_of_asc_node": 338.1734,
        "meta_arg_of_pericenter": 18.7651,
        "meta_mean_anomaly": 341.4927,
        "meta_ephemeris_type": 0,
        "meta_classification_type": "U",
        "meta_norad_cat_id": 32052,
        "meta_element_set_no": 999,
        "meta_rev_at_epoch": 91698,
        "meta_bstar": 3.9694e-05,
        "meta_mean_motion_dot": 5.3e-07,
        "meta_mean_motion_ddot": 0,
        "tle_line1": "1 32052U 07038A   25353.70538466  .00000053  00000+0  39694-4 0  9999",
        "tle_line2": "2 32052  82.9805 338.1734 0038846  18.7651 341.4927 13.75150092916988"
      },
      "geometry": {
        "type": "Point",
        "coordinates": [
          139.42360628345523,
          68.85249653446002
        ]
      }
    },
    {
      "type": "Feature",
      "properties": {
        "norad_id": 35635,
        "name": "COSMOS 2454",
        "group": "musson",
        "lat": 48.03456742677423,
        "lon": 171.08519203716494,
        "alt_km": 909.8422141984502,
        "timestamp": "2025-12-19T22:41:52.661663+00:00",
        "meta_object_name": "COSMOS 2454",
        "meta_object_id": "2009-039A",
        "meta_epoch": "2025-12-19T10:30:20.705760",
        "meta_mean_motion": 13.89929402,
        "meta_eccentricity": 0.0020257,
        "meta_inclination": 82.9554,
        "meta_ra_of_asc_node": 163.5674,
        "meta_arg_of_pericenter": 55.7855,
        "meta_mean_anomaly": 332.3383,
        "meta_ephemeris_type": 0,
        "meta_classification_type": "U",
        "meta_norad_cat_id": 35635,
        "meta_element_set_no": 999,
        "meta_rev_at_epoch": 83243,
        "meta_bstar": 3.1583e-05,
        "meta_mean_motion_dot": 5.5e-07,
        "meta_mean_motion_ddot": 0,
        "tle_line1": "1 35635U 09039A   25353.43773965  .00000055  00000+0  31583-4 0  9998",
        "tle_line2": "2 35635  82.9554 163.5674 0020257  55.7855 332.3383 13.89929402832432"
      },
      "geometry": {
        "type": "Point",
        "coordinates": [
          171.08519203716494,
          48.03456742677423
        ]
      }
    },
    {
      "type": "Feature",
      "properties": {
        "norad_id": 36519,
        "name": "COSMOS 2463",
        "group": "musson",
        "lat": -24.267787741694402,
        "lon": 18.223793095105364,
        "alt_km": 989.566582232038,
        "timestamp": "2025-12-19T22:41:52.661673+00:00",
        "meta_object_name": "COSMOS 2463",
        "meta_object_id": "2010-017A",
        "meta_epoch": "2025-12-19T12:50:56.753376",
        "meta_mean_motion": 13.71649731,
        "meta_eccentricity": 0.0034742,
        "meta_inclination": 82.9605,
        "meta_ra_of_asc_node": 21.7186,
        "meta_arg_of_pericenter": 268.4983,
        "meta_mean_anomaly": 201.5375,
        "meta_ephemeris_type": 0,
        "meta_classification_type": "U",
        "meta_norad_cat_id": 36519,
        "meta_element_set_no": 999,
        "meta_rev_at_epoch": 78330,
        "meta_bstar": 5.2986e-05,
        "meta_mean_motion_dot": 6.3e-07,
        "meta_mean_motion_ddot": 0,
        "tle_line1": "1 36519U 10017A   25353.53537909  .00000063  00000+0  52986-4 0  9994",
        "tle_line2": "2 36519  82.9605  21.7186 0034742 268.4983 201.5375 13.71649731783307"
      },
      "geometry": {
        "type": "Point",
        "coordinates": [
          18.223793095105364,
          -24.267787741694402
        ]
      }
    }
  ]
}